NORAD_CAT_ID,OBJECT_NAME,OBJECT_TYPE,EPOCH,MEAN_MOTION,ECCENTRICITY,INCLINATION,RA_OF_ASC_NODE,ARG_OF_PERICENTER,MEAN_ANOMALY,BSTAR,MEAN_MOTION_DOT,MEAN_MOTION_DDOT,TLE_LINE0,TLE_LINE1,TLE_LINE2,SEMIMAJOR_AXIS,PERIOD,APOGEE,PERIGEE,DECAYED
51716.0,STARLINK-3543,PAYLOAD,2023-08-01 14:26:54,15.08835097,0.0001171,53.2156,278.7218,86.2834,273.8292,-1.6506e-05,-5.5e-06,0.0,0 STARLINK-3543,1 51716U 22016C   23213.60202340 -.00000550  00000-0 -16506-4 0  9993,2 51716  53.2156 278.7218 0001171  86.2834 273.8292 15.08835097 80906,6917.895,95.438,540.57,538.95,0.0
51716.0,STARLINK-3543,PAYLOAD,2023-08-02 11:06:55,15.08842417,0.0001094,53.2152,274.8555,90.7138,269.398,5.4579e-05,5.81e-06,0.0,0 STARLINK-3543,1 51716U 22016C   23214.46313793  .00000581  00000-0  54579-4 0  9997,2 51716  53.2152 274.8555 0001094  90.7138 269.3980 15.08842417 81037,6917.873,95.437,540.495,538.981,0.0
51716.0,STARLINK-3543,PAYLOAD,2023-08-04 02:51:33,15.08838788,0.0001072,53.2141,267.4235,101.6398,258.4715,7.2342e-05,8.64e-06,0.0,0 STARLINK-3543,1 51716U 22016C   23216.11914000  .00000864  00000-0  72342-4 0  9991,2 51716  53.2141 267.4235 0001072 101.6398 258.4715 15.08838788 81282,6917.884,95.438,540.491,539.007,0.0
51716.0,STARLINK-3543,PAYLOAD,2023-08-04 10:48:30,15.08834122,9.37e-05,53.2154,265.9357,94.1038,266.0061,9.8591e-06,-1.31e-06,0.0,0 STARLINK-3543,1 51716U 22016C   23216.45034800 -.00000131  00000-0  98591-5 0  9992,2 51716  53.2154 265.9357 0000937  94.1038 266.0061 15.08834122 81333,6917.898,95.438,540.412,539.115,0.0
51716.0,STARLINK-3543,PAYLOAD,2023-08-05 10:39:16,15.08849003,9.5e-05,53.2152,261.4746,93.9312,266.1789,9.3388e-05,1.199e-05,0.0,0 STARLINK-3543,1 51716U 22016C   23217.44393669  .00001199  00000-0  93388-4 0  9995,2 51716  53.2152 261.4746 0000950  93.9312 266.1789 15.08849003 81489,6917.853,95.437,540.375,539.061,0.0
51716.0,STARLINK-3543,PAYLOAD,2023-08-06 02:33:07,15.08840341,0.0001043,53.2156,258.5015,84.8177,275.2934,0.00016242,2.298e-05,0.0,0 STARLINK-3543,1 51716U 22016C   23218.10634034  .00002298  00000-0  16242-3 0  9997,2 51716  53.2156 258.5015 0001043  84.8177 275.2934 15.08840341 81581,6917.879,95.438,540.466,539.023,0.0
51716.0,STARLINK-3543,PAYLOAD,2023-08-07 08:45:27,15.0883887,0.0001013,53.2148,252.8515,85.8017,274.309,-3.8263e-05,-8.97e-06,0.0,0 STARLINK-3543,1 51716U 22016C   23219.36490651 -.00000897  00000-0 -38263-4 0  9994,2 51716  53.2148 252.8515 0001013  85.8017 274.3090 15.08838870 81773,6917.884,95.438,540.45,539.048,0.0
51716.0,STARLINK-3543,PAYLOAD,2023-08-08 08:36:14,15.08844138,0.0001018,53.2147,248.3899,89.1153,270.9956,6.6265e-05,7.67e-06,0.0,0 STARLINK-3543,1 51716U 22016C   23220.35849916  .00000767  00000-0  66265-4 0  9994,2 51716  53.2147 248.3899 0001018  89.1153 270.9956 15.08844138 81924,6917.868,95.437,540.437,539.029,0.0
51716.0,STARLINK-3543,PAYLOAD,2023-08-09 08:27:02,15.08834354,0.0001056,53.2154,243.9293,90.7807,269.3306,3.3911e-05,2.52e-06,0.0,0 STARLINK-3543,1 51716U 22016C   23221.35210796  .00000252  00000-0  33911-4 0  9994,2 51716  53.2154 243.9293 0001056  90.7807 269.3306 15.08834354 82074,6917.898,95.438,540.493,539.032,0.0
51716.0,STARLINK-3543,PAYLOAD,2023-08-09 17:59:21,15.08826277,0.0001049,53.2152,242.1431,90.436,269.6752,-2.4626e-05,-6.79e-06,0.0,0 STARLINK-3543,1 51716U 22016C   23221.74955635 -.00000679  00000-0 -24626-4 0  9993,2 51716  53.2152 242.1431 0001049  90.4360 269.6752 15.08826277 82130,6917.922,95.438,540.513,539.062,0.0
51716.0,STARLINK-3543,PAYLOAD,2023-08-10 08:17:51,15.08815807,0.0001195,53.2157,239.4711,95.8384,264.2744,-0.0001373,-2.471e-05,0.0,0 STARLINK-3543,1 51716U 22016C   23222.34573418 -.00002471  00000-0 -13730-3 0  9990,2 51716  53.2157 239.4711 0001195  95.8384 264.2744 15.08815807 82221,6917.954,95.439,540.646,538.993,0.0
51716.0,STARLINK-3543,PAYLOAD,2023-08-10 17:50:09,15.08825393,0.0001194,53.2161,237.6865,95.8726,264.2402,-4.338e-05,-9.78e-06,0.0,0 STARLINK-3543,1 51716U 22016C   23222.74317001 -.00000978  00000-0 -43380-4 0  9993,2 51716  53.2161 237.6865 0001194  95.8726 264.2402 15.08825393 82283,6917.925,95.438,540.616,538.964,0.0
51716.0,STARLINK-3543,PAYLOAD,2023-08-11 11:19:23,15.08837834,0.0001067,53.2157,234.4141,92.3643,267.7471,9.9336e-05,1.293e-05,0.0,0 STARLINK-3543,1 51716U 22016C   23223.47180269  .00001293  00000-0  99336-4 0  9999,2 51716  53.2157 234.4141 0001067  92.3643 267.7471 15.08837834 82398,6917.887,95.438,540.49,539.014,0.0
51716.0,STARLINK-3543,PAYLOAD,2023-08-12 17:31:43,15.08854643,0.0001047,53.2134,228.763,83.9877,276.1234,0.00033808,5.099e-05,0.0,0 STARLINK-3543,1 51716U 22016C   23224.73036033  .00005099  00000-0  33808-3 0  9997,2 51716  53.2134 228.7630 0001047  83.9877 276.1234 15.08854643 82584,6917.836,95.437,540.425,538.976,0.0
51716.0,STARLINK-3543,PAYLOAD,2023-08-13 01:28:39,15.08854557,0.000227,53.2135,227.2768,82.7583,277.3667,0.00026377,3.914e-05,0.0,0 STARLINK-3543,1 51716U 22016C   23225.06156283  .00003914  00000-0  26377-3 0  9991,2 51716  53.2135 227.2768 0002270  82.7583 277.3667 15.08854557 82634,6917.836,95.437,541.271,538.131,0.0
51716.0,STARLINK-3543,PAYLOAD,2023-08-13 09:25:35,15.08825901,0.0001229,53.2134,225.7892,86.2622,273.851,-0.00025941,-4.412e-05,0.0,0 STARLINK-3543,1 51716U 22016C   23225.39277294 -.00004412  00000-0 -25941-3 0  9995,2 51716  53.2134 225.7892 0001229  86.2622 273.8510 15.08825901 82684,6917.923,95.438,540.639,538.938,0.0
51716.0,STARLINK-3543,PAYLOAD,2023-08-13 17:22:31,15.08836848,0.0001097,53.214,224.303,75.3747,284.7366,2.8397e-05,1.64e-06,0.0,0 STARLINK-3543,1 51716U 22016C   23225.72397110  .00000164  00000-0  28397-4 0  9999,2 51716  53.2140 224.3030 0001097  75.3747 284.7366 15.08836848 82738,6917.89,95.438,540.514,538.996,0.0
51716.0,STARLINK-3543,PAYLOAD,2023-08-14 09:16:22,15.08849345,0.0001194,53.2138,221.3299,68.617,291.4949,0.00050414,7.747e-05,0.0,0 STARLINK-3543,1 51716U 22016C   23226.38636970  .00007747  00000-0  50414-3 0  9990,2 51716  53.2138 221.3299 0001194  68.6170 291.4949 15.08849345 82831,6917.852,95.437,540.543,538.891,0.0
51716.0,STARLINK-3543,PAYLOAD,2023-08-15 10:42:31,15.08873584,0.0001292,53.2133,216.5713,65.79,294.3227,0.00081512,0.0001272,0.0,0 STARLINK-3543,1 51716U 22016C   23227.44619698  .00012720  00000-0  81512-3 0  9996,2 51716  53.2133 216.5713 0001292  65.7900 294.3227 15.08873584 82991,6917.778,95.435,540.537,538.749,0.0
51716.0,STARLINK-3543,PAYLOAD,2023-08-16 08:57:54,15.08858824,0.000129,53.2144,212.4075,72.5074,287.6059,0.00037892,5.751e-05,0.0,0 STARLINK-3543,1 51716U 22016C   23228.37355056  .00005751  00000-0  37892-3 0  9992,2 51716  53.2144 212.4075 0001290  72.5074 287.6059 15.08858824 83130,6917.823,95.436,540.58,538.795,0.0
51716.0,STARLINK-3543,PAYLOAD,2023-08-17 02:27:09,15.08846625,0.0001377,53.2145,209.136,85.9777,274.1372,0.00018365,2.637e-05,0.0,0 STARLINK-3543,1 51716U 22016C   23229.10219035  .00002637  00000-0  18365-3 0  9994,2 51716  53.2145 209.1360 0001377  85.9777 274.1372 15.08846625 83242,6917.86,95.437,540.678,538.773,0.0
51716.0,STARLINK-3543,PAYLOAD,2023-08-18 03:53:19,15.08842531,0.0001355,53.2151,204.3791,83.7221,276.3925,7.2136e-05,8.6e-06,0.0,0 STARLINK-3543,1 51716U 22016C   23230.16203204  .00000860  00000-0  72136-4 0  9996,2 51716  53.2151 204.3791 0001355  83.7221 276.3925 15.08842531 83408,6917.873,95.437,540.675,538.8,0.0
51716.0,STARLINK-3543,PAYLOAD,2023-08-19 05:19:29,15.08840341,0.0001316,53.2151,199.6221,90.7995,269.3148,9.5027e-05,1.225e-05,0.0,0 STARLINK-3543,1 51716U 22016C   23231.22187399  .00001225  00000-0  95027-4 0  9990,2 51716  53.2151 199.6221 0001316  90.7995 269.3148 15.08840341 83568,6917.879,95.438,540.655,538.834,0.0
51716.0,STARLINK-3543,PAYLOAD,2023-08-20 03:34:54,15.08835278,0.0001333,53.2151,195.4583,91.9459,268.1686,6.2092e-06,-1.89e-06,0.0,0 STARLINK-3543,1 51716U 22016C   23232.14923888 -.00000189  00000-0  62092-5 0  9999,2 51716  53.2151 195.4583 0001333  91.9459 268.1686 15.08835278 83703,6917.895,95.438,540.682,538.838,0.0
51716.0,STARLINK-3543,PAYLOAD,2023-08-21 06:36:27,15.08846619,0.0001345,53.2149,190.4024,89.077,271.0376,0.00017807,2.548e-05,0.0,0 STARLINK-3543,1 51716U 22016C   23233.27531584  .00002548  00000-0  17807-3 0  9994,2 51716  53.2149 190.4024 0001345  89.0770 271.0376 15.08846619 83870,6917.86,95.437,540.656,538.795,0.0
51716.0,STARLINK-3543,PAYLOAD,2023-08-22 03:16:28,15.08839437,0.0001311,53.2149,186.5361,92.8131,267.3012,6.3004e-05,7.15e-06,0.0,0 STARLINK-3543,1 51716U 22016C   23234.13644283  .00000715  00000-0  63004-4 0  9996,2 51716  53.2149 186.5361 0001311  92.8131 267.3012 15.08839437 84007,6917.882,95.438,540.654,538.84,0.0
51716.0,STARLINK-3543,PAYLOAD,2023-08-23 06:18:02,15.08827126,0.0001704,53.2165,181.4795,93.8744,266.2443,0.00039183,5.951e-05,0.0,0 STARLINK-3543,1 51716U 22016C   23235.26252366  .00005951  00000-0  39183-3 0  9995,2 51716  53.2165 181.4795 0001704  93.8744 266.2443 15.08827126 84173,6917.92,95.438,540.964,538.606,0.0
51716.0,STARLINK-3543,PAYLOAD,2023-08-24 20:27:17,15.08840785,0.0001435,53.2159,174.341,108.3681,251.7467,-5.2798e-06,-3.72e-06,0.0,0 STARLINK-3543,1 51716U 22016C   23236.85228387 -.00000372  00000-0 -52798-5 0  9990,2 51716  53.2159 174.3410 0001435 108.3681 251.7467 15.08840785 83354,6917.878,95.438,540.736,538.75,0.0
51716.0,STARLINK-3543,PAYLOAD,2023-08-25 02:48:49,15.08839714,0.0001547,53.2168,173.152,109.2193,250.8967,2.8727e-05,1.69e-06,0.0,0 STARLINK-3543,1 51716U 22016C   23237.11724306  .00000169  00000-0  28727-4 0  9998,2 51716  53.2168 173.1520 0001547 109.2193 250.8967 15.08839714 84452,6917.881,95.438,540.816,538.676,0.0
51716.0,STARLINK-3543,PAYLOAD,2023-08-25 05:59:35,15.08840743,0.0001374,53.2161,172.5606,103.3998,256.7148,9.063e-05,1.155e-05,0.0,0 STARLINK-3543,1 51716U 22016C   23237.24972136  .00001155  00000-0  90630-4 0  9996,2 51716  53.2161 172.5606 0001374 103.3998 256.7148 15.08840743 83414,6917.878,95.438,540.694,538.793,0.0
